OBJECT_NAME,OBJECT_ID,EPOCH,MEAN_MOTION,ECCENTRICITY,INCLINATION,RA_OF_ASC_NODE,ARG_OF_PERICENTER,MEAN_ANOMALY,EPHEMERIS_TYPE,CLASSIFICATION_TYPE,NORAD_CAT_ID,ELEMENT_SET_NO,REV_AT_EPOCH,BSTAR,MEAN_MOTION_DOT,MEAN_MOTION_DDOT
COSMOS 2534 (758),2019-030A,2026-07-15T20:50:27.000384,2.13102194,.00135247,64.3704,191.6506,275.0197,267.3680,0,U,44299,999,5553,0,.52E-6,0
BEIDOU-3 IGSO-2 (C39),2019-035A,2026-07-16T07:02:30.030432,1.00257273,.00394029,55.2503,158.6068,216.5730,143.0260,0,U,44337,999,2596,0,-.138E-5,0
GPS BIII-2  (PRN 18),2019-056A,2026-07-15T19:19:31.702656,2.00569977,.00634641,55.6216,330.0052,198.1718,333.4897,0,U,44506,999,5064,0,-.96E-6,0
BEIDOU-3 M24 (C46),2019-061A,2026-07-15T03:56:11.179392,1.86229132,.00086459,54.3974,181.7843,359.6110,0.3623,0,U,44542,999,4631,0,.41E-6,0
BEIDOU-3 M23 (C45),2019-061B,2026-07-15T19:59:15.300672,1.86227519,.0005937,54.3957,181.7301,340.6955,19.0868,0,U,44543,999,4633,0,.4E-6,0
EUTELSAT 5 WEST B (EGNOS/PRN 121),2019-067A,2026-07-16T06:27:18.404064,1.00272156,.00030591,0.0828,316.7221,158.4418,270.7577,0,U,44624,999,2472,0,-.53E-6,0
BEIDOU-3 M22 (C44),2019-078A,2026-07-13T09:26:32.496288,1.86227300,.00057504,53.9106,298.9058,50.3045,309.7753,0,U,44793,999,4513,0,-.62E-6,0
BEIDOU-3 M21 (C43),2019-078B,2026-07-15T03:27:37.011168,1.86227652,.00034441,53.8818,298.8044,48.1201,311.9449,0,U,44794,999,4517,0,-.66E-6,0
COSMOS 2544 (759),2019-088A,2026-07-14T05:54:57.771936,2.13102807,.0012152,65.5799,72.8282,253.9346,106.0066,0,U,44850,999,5129,0,-.8E-7,0
BEIDOU-3 M19 (C41),2019-090A,2026-07-15T03:29:10.845024,1.86231024,.0016849,56.5835,61.8670,297.6358,260.7026,0,U,44864,999,4475,0,-.41E-6,0
BEIDOU-3 M20 (C42),2019-090B,2026-07-14T11:37:19.767648,1.86231148,.00143929,56.5841,61.9230,312.7381,252.0119,0,U,44865,999,4472,0,-.39E-6,0
BEIDOU-3 G2 (C60),2020-017A,2026-07-16T03:26:10.560192,1.00268904,.00019405,2.9215,47.7426,61.9257,315.8648,0,U,45344,999,2355,0,-.151E-5,0
COSMOS 2545 (760),2020-018A,2026-07-15T09:07:07.069152,2.13102376,.0009576,64.3368,311.4285,229.8153,130.1163,0,U,45358,999,4926,0,-.61E-6,0
BEIDOU-3 G3 (C61),2020-040A,2026-07-16T07:00:07.757280,1.00275953,.00022156,2.5166,67.4780,307.7814,134.3773,0,U,45807,999,2236,0,-.365E-5,0
GPS BIII-3  (PRN 23),2020-041A,2026-07-15T21:42:14.592384,2.00557785,.0065213,56.6887,27.8299,204.6780,335.6765,0,U,45854,999,4461,0,-.75E-6,0
GALAXY 30 (WAAS/PRN 135),2020-056C,2026-07-15T23:02:28.714848,1.00272066,.00020097,0.0128,68.4269,47.3472,38.6367,0,U,46114,999,2158,0,.26E-6,0
COSMOS 2547 (705K),2020-075A,2026-07-15T13:40:19.372224,2.13099910,.00094588,64.6014,191.5282,239.8249,120.0839,0,U,46805,999,4451,0,.54E-6,0
GPS BIII-4  (PRN 14),2020-078A,2026-07-15T16:30:38.802240,2.00564949,.00745628,53.9772,209.6224,207.8336,153.6237,0,U,46826,999,4208,0,.46E-6,0
GPS BIII-5  (PRN 11),2021-054A,2026-07-15T22:15:10.747872,2.00566994,.0026474,55.1591,331.3041,228.5431,132.0309,0,U,48859,999,3733,0,-.98E-6,0
QZS-1R (QZSS/PRN 196),2021-096A,2026-07-14T13:49:51.633120,1.00245239,.0754906,37.5157,79.1769,272.2285,280.2291,0,U,49336,999,1728,0,-.304E-5,0
GSAT0223 (GALILEO 27),2021-116A,2026-07-16T00:41:00.847392,1.70476009,.0002435,57.1502,340.8963,195.4357,344.9614,0,U,49809,999,2867,0,-.101E-5,0
GSAT0224 (GALILEO 28),2021-116B,2026-07-15T12:53:00.955104,1.70475983,.00018916,57.1508,340.9083,182.1606,169.1216,0,U,49810,999,2868,0,-.1E-5,0
COSMOS 2557 (706K),2022-075A,2026-07-15T06:20:56.681952,2.13102178,.0010843,64.2806,313.4964,271.2690,88.6188,0,U,52984,999,3131,0,-.64E-6,0
COSMOS 2559 (707K),2022-130A,2026-07-14T14:45:34.162272,2.13101643,.0013085,64.2533,313.6016,181.0015,179.0060,0,U,54031,999,2927,0,-.64E-6,0
COSMOS 2564 (761),2022-161A,2026-07-14T22:15:24.130368,2.13101973,.0012238,64.7437,191.7908,224.9723,134.9352,0,U,54377,999,2822,0,.59E-6,0
GPS BIII-6  (PRN 28),2023-009A,2026-07-16T03:01:57.879840,2.00569500,.00062594,55.1242,147.3813,321.9339,221.1207,0,U,55268,999,2582,0,.16E-6,0
BEIDOU-3 G4 (C62),2023-066A,2026-07-16T07:08:36.943584,1.00272164,.00049186,0.4597,339.2862,186.4792,15.5859,0,U,56564,999,1168,0,-.291E-5,0
NVS-01 (IRNSS-1J),2023-076A,2026-07-16T07:05:37.230720,1.00264283,.00035231,2.0989,243.0279,6.5592,280.3397,0,U,56759,999,1140,0,-.348E-5,0
COSMOS 2569 (703K),2023-114A,2026-07-15T21:04:36.390144,2.13103741,.00096551,65.3185,71.6532,295.9092,64.0686,0,U,57517,999,2287,0,-.13E-6,0
BEIDOU-3 M28 (C50),2023-207A,2026-07-15T18:11:39.815808,1.86229674,.00024114,55.7781,61.3393,5.4366,354.6394,0,U,58654,999,1737,0,-.46E-6,0
BEIDOU-3 M26 (C48),2023-207B,2026-07-13T22:40:23.820960,1.86229657,.0002016,55.7789,61.3870,324.6613,35.3983,0,U,58655,999,1732,0,-.41E-6,0
